PROBA-V                 
1 39159U 13021A   17346.39810299 -.00000011  00000-0  14171-4 0  9997
2 39159  98.5814  58.1200 0003427 199.7941 160.3110 14.22953041238945
